{"type": "FeatureCollection", "features": [ {"type": "Feature", "properties": {"norad_id": 39620, "name": "COSMOS 2492 (754)", "group": "gnss", "lat": 9.161416133945188, "lon": -35.965389636497854, "alt_km": 19108.528225031863, "timestamp": "2025-12-26T04:40:06.029380+00:00", "meta": {"OBJECT_NAME": "COSMOS 2492 (754)", "OBJECT_ID": "2014-012A", "EPOCH": "2025-12-24T18:34:00.043104", "MEAN_MOTION": 2.13103196, "ECCENTRICITY": 0.00142647, "INCLINATION": 65.401, "RA_OF_ASC_NODE": 319.8627, "ARG_OF_PERICENTER": 314.554, "MEAN_ANOMALY": 45.3312, "EPHEMERIS_TYPE": 0, "CLASSIFICATION_TYPE": "U", "NORAD_CAT_ID": 39620, "ELEMENT_SET_NO": 999, "REV_AT_EPOCH": 9152, "BSTAR": 0, "MEAN_MOTION_DOT": -3.2e-07, "MEAN_MOTION_DDOT": 0}, "tle": {"line1": "1 39620U 14012A   25358.77361161 -.00000032  00000+0  00000+0 0  9997", "line2": "2 39620  65.4010 319.8627 0014264 314.5540  45.3312  2.13103196 91524"}}, "geometry": {"type": "Point", "coordinates": [-35.965389636497854, 9.161416133945188]}}, {"type": "Feature", "properties": {"norad_id": 39635, "name": "IRNSS-1B", "group": "gnss", "lat": -11.142516662050355, "lon": -137.18933058893884, "alt_km": 35862.047270398885, "timestamp": "2025-12-26T04:40:06.029393+00:00", "meta": {"OBJECT_NAME": "IRNSS-1B", "OBJECT_ID": "2014-017A", "EPOCH": "2025-12-24T18:29:47.559840", "MEAN_MOTION": 1.00272104, "ECCENTRICITY": 0.00185731, "INCLINATION": 29.2343, "RA_OF_ASC_NODE": 243.3872, "ARG_OF_PERICENTER": 174.7097, "MEAN_ANOMALY": 8.021, "EPHEMERIS_TYPE": 0, "CLASSIFICATION_TYPE": "U", "NORAD_CAT_ID": 39635, "ELEMENT_SET_NO": 999, "REV_AT_EPOCH": 4304, "BSTAR": 0, "MEAN_MOTION_DOT": 1.4e-06, "MEAN_MOTION_DDOT": 0}, "tle": {"line1": "1 39635U 14017A   25358.77068935  .00000140  00000+0  00000+0 0  9990", "line2": "2 39635  29.2343 243.3872 0018573 174.7097   8.0210  1.00272104 43048"}}, "geometry": {"type": "Point", "coordinates": [-137.18933058893884, -11.142516662050355]}}, {"type": "Feature", "properties": {"norad_id": 39727, "name": "LUCH 5V (SDCM/PRN 141)", "group": "gnss", "lat": -0.6910286712378858, "lon": -100.33255683092827, "alt_km": 35771.28215526109, "timestamp": "2025-12-26T04:40:06.029410+00:00", "meta": {"OBJECT_NAME": "LUCH 5V (SDCM/PRN 141)", "OBJECT_ID": "2014-023A", "EPOCH": "2025-12-25T18:50:44.640096", "MEAN_MOTION": 1.00273844, "ECCENTRICITY": 0.00037863, "INCLINATION": 4.7006, "RA_OF_ASC_NODE": 71.4272, "ARG_OF_PERICENTER": 214.6712, "MEAN_ANOMALY": 185.8732, "EPHEMERIS_TYPE": 0, "CLASSIFICATION_TYPE": "U", "NORAD_CAT_ID": 39727, "ELEMENT_SET_NO": 999, "REV_AT_EPOCH": 4262, "BSTAR": 0, "MEAN_MOTION_DOT": -2.49e-06, "MEAN_MOTION_DDOT": 0}, "tle": {"line1": "1 39727U 14023A   25359.78523889 -.00000249  00000+0  00000+0 0  9996", "line2": "2 39727   4.7006  71.4272 0003786 214.6712 185.8732  1.00273844 42624"}}, "geometry": {"type": "Point", "coordinates": [-100.33255683092827, -0.6910286712378858]}}, {"type": "Feature", "properties": {"norad_id": 39741, "name": "GPS BIIF-6  (PRN 06)", "group": "gnss", "lat": 6.779548602146886, "lon": 153.74000684586278, "alt_km": 20270.32148377593, "timestamp": "2025-12-26T04:40:06.029422+00:00", "meta": {"OBJECT_NAME": "GPS BIIF-6  (PRN 06)", "OBJECT_ID": "2014-026A", "EPOCH": "2025-12-24T23:00:25.010784", "MEAN_MOTION": 2.00560429, "ECCENTRICITY": 0.00394828, "INCLINATION": 56.5788, "RA_OF_ASC_NODE": 338.3014, "ARG_OF_PERICENTER": 319.3723, "MEAN_ANOMALY": 40.3399, "EPHEMERIS_TYPE": 0, "CLASSIFICATION_TYPE": "U", "NORAD_CAT_ID": 39741, "ELEMENT_SET_NO": 999, "REV_AT_EPOCH": 8504, "BSTAR": 0, "MEAN_MOTION_DOT": -5.8e-07, "MEAN_MOTION_DDOT": 0}, "tle": {"line1": "1 39741U 14026A   25358.95862281 -.00000058  00000+0  00000+0 0  9993", "line2": "2 39741  56.5788 338.3014 0039482 319.3723  40.3399  2.00560429 85044"}}, "geometry": {"type": "Point", "coordinates": [153.74000684586278, 6.779548602146886]}}, {"type": "Feature", "properties": {"norad_id": 40001, "name": "COSMOS 2500 (755)", "group": "gnss", "lat": -50.50858455383663, "lon": 173.42138932206723, "alt_km": 19116.766891669613, "timestamp": "2025-12-26T04:40:06.029436+00:00", "meta": {"OBJECT_NAME": "COSMOS 2500 (755)", "OBJECT_ID": "2014-032A", "EPOCH": "2025-12-24T22:41:43.592352", "MEAN_MOTION": 2.13106238, "ECCENTRICITY": 0.0007709, "INCLINATION": 65.3365, "RA_OF_ASC_NODE": 319.6177, "ARG_OF_PERICENTER": 219.4903, "MEAN_ANOMALY": 140.4561, "EPHEMERIS_TYPE": 0, "CLASSIFICATION_TYPE": "U", "NORAD_CAT_ID": 40001, "ELEMENT_SET_NO": 999, "REV_AT_EPOCH": 8974, "BSTAR": 0, "MEAN_MOTION_DOT": -3.2e-07, "MEAN_MOTION_DDOT": 0}, "tle": {"line1": "1 40001U 14032A   25358.94564343 -.00000032  00000+0  00000+0 0  9990", "line2": "2 40001  65.3365 319.6177 0007709 219.4903 140.4561  2.13106238 89745"}}, "geometry": {"type": "Point", "coordinates": [173.42138932206723, -50.50858455383663]}}, {"type": "Feature", "properties": {"norad_id": 40105, "name": "GPS BIIF-7  (PRN 09)", "group": "gnss", "lat": 50.50888710630461, "lon": -141.94735134512328, "alt_km": 20090.72682533806, "timestamp": "2025-12-26T04:40:06.029447+00:00", "meta": {"OBJECT_NAME": "GPS BIIF-7  (PRN 09)", "OBJECT_ID": "2014-045A", "EPOCH": "2025-12-23T13:11:32.096256", "MEAN_MOTION": 2.00573211, "ECCENTRICITY": 0.00324114, "INCLINATION": 55.2352, "RA_OF_ASC_NODE": 95.4677, "ARG_OF_PERICENTER": 120.1575, "MEAN_ANOMALY": 240.1743, "EPHEMERIS_TYPE": 0, "CLASSIFICATION_TYPE": "U", "NORAD_CAT_ID": 40105, "ELEMENT_SET_NO": 999, "REV_AT_EPOCH": 8255, "BSTAR": 0, "MEAN_MOTION_DOT": 8e-08, "MEAN_MOTION_DDOT": 0}, "tle": {"line1": "1 40105U 14045A   25357.54967704  .00000008  00000+0  00000+0 0  9994", "line2": "2 40105  55.2352  95.4677 0032411 120.1575 240.1743  2.00573211 82556"}}, "geometry": {"type": "Point", "coordinates": [-141.94735134512328, 50.50888710630461]}}, {"type": "Feature", "properties": {"norad_id": 40128, "name": "GSAT0201 (GALILEO 5)", "group": "gnss", "lat": -41.13231994783649, "lon": 149.71254560114266, "alt_km": 19237.09793200318, "timestamp": "2025-12-26T04:40:06.029459+00:00", "meta": {"OBJECT_NAME": "GSAT0201 (GALILEO 5)", "OBJECT_ID": "2014-050A", "EPOCH": "2025-12-24T05:54:59.332320", "MEAN_MOTION": 1.85519669, "ECCENTRICITY": 0.16490328, "INCLINATION": 49.0634, "RA_OF_ASC_NODE": 280.5946, "ARG_OF_PERICENTER": 172.7103, "MEAN_ANOMALY": 190.0774, "EPHEMERIS_TYPE": 0, "CLASSIFICATION_TYPE": "U", "NORAD_CAT_ID": 40128, "ELEMENT_SET_NO": 999, "REV_AT_EPOCH": 7507, "BSTAR": 0, "MEAN_MOTION_DOT": -3.7e-07, "MEAN_MOTION_DDOT": 0}, "tle": {"line1": "1 40128U 14050A   25358.24652005 -.00000037  00000+0  00000+0 0  9991", "line2": "2 40128  49.0634 280.5946 1649032 172.7103 190.0774  1.85519669 75070"}}, "geometry": {"type": "Point", "coordinates": [149.71254560114266, -41.13231994783649]}}, {"type": "Feature", "properties": {"norad_id": 40129, "name": "GSAT0202 (GALILEO 6)", "group": "gnss", "lat": 27.689010018002616, "lon": -53.36567501480632, "alt_km": 24473.878307603696, "timestamp": "2025-12-26T04:40:06.029470+00:00", "meta": {"OBJECT_NAME": "GSAT0202 (GALILEO 6)", "OBJECT_ID": "2014-050B", "EPOCH": "2025-12-23T23:07:46.341984", "MEAN_MOTION": 1.85520106, "ECCENTRICITY": 0.16495716, "INCLINATION": 49.08, "RA_OF_ASC_NODE": 279.6897, "ARG_OF_PERICENTER": 173.4584, "MEAN_ANOMALY": 189.053, "EPHEMERIS_TYPE": 0, "CLASSIFICATION_TYPE": "U", "NORAD_CAT_ID": 40129, "ELEMENT_SET_NO": 999, "REV_AT_EPOCH": 7723, "BSTAR": 0, "MEAN_MOTION_DOT": -3.5e-07, "MEAN_MOTION_DDOT": 0}, "tle": {"line1": "1 40129U 14050B   25357.96373081 -.00000035  00000+0  00000+0 0  9992", "line2": "2 40129  49.0800 279.6897 1649571 173.4584 189.0530  1.85520106 77235"}}, "geometry": {"type": "Point", "coordinates": [-53.36567501480632, 27.689010018002616]}}, {"type": "Feature", "properties": {"norad_id": 40269, "name": "IRNSS-1C", "group": "gnss", "lat": 2.480271941591184, "lon": -111.79804300752373, "alt_km": 35854.807905988164, "timestamp": "2025-12-26T04:40:06.029482+00:00", "meta": {"OBJECT_NAME": "IRNSS-1C", "OBJECT_ID": "2014-061A", "EPOCH": "2025-12-25T19:23:21.836832", "MEAN_MOTION": 1.00273138, "ECCENTRICITY": 0.00181158, "INCLINATION": 6.0752, "RA_OF_ASC_NODE": 92.3596, "ARG_OF_PERICENTER": 0.8311, "MEAN_ANOMALY": 15.2345, "EPHEMERIS_TYPE": 0, "CLASSIFICATION_TYPE": "U", "NORAD_CAT_ID": 40269, "ELEMENT_SET_NO": 999, "REV_AT_EPOCH": 4095, "BSTAR": 0, "MEAN_MOTION_DOT": -1.42e-06, "MEAN_MOTION_DDOT": 0}, "tle": {"line1": "1 40269U 14061A   25359.80789163 -.00000142  00000+0  00000+0 0  9995", "line2": "2 40269   6.0752  92.3596 0018115   0.8311  15.2345  1.00273138 40959"}}, "geometry": {"type": "Point", "coordinates": [-111.79804300752373, 2.480271941591184]}}, {"type": "Feature", "properties": {"norad_id": 40294, "name": "GPS BIIF-8  (PRN 03)", "group": "gnss", "lat": -15.642530803561433, "lon": -131.82706042448544, "alt_km": 20287.24318011372, "timestamp": "2025-12-26T04:40:06.029495+00:00", "meta": {"OBJECT_NAME": "GPS BIIF-8  (PRN 03)", "OBJECT_ID": "2014-068A", "EPOCH": "2025-12-23T10:16:22.808064", "MEAN_MOTION": 2.00565491, "ECCENTRICITY": 0.00608386, "INCLINATION": 56.8656, "RA_OF_ASC_NODE": 37.7327, "ARG_OF_PERICENTER": 68.9718, "MEAN_ANOMALY": 291.747, "EPHEMERIS_TYPE": 0, "CLASSIFICATION_TYPE": "U", "NORAD_CAT_ID": 40294, "ELEMENT_SET_NO": 999, "REV_AT_EPOCH": 8168, "BSTAR": 0, "MEAN_MOTION_DOT": -4.8e-07, "MEAN_MOTION_DDOT": 0}, "tle": {"line1": "1 40294U 14068A   25357.42804176 -.00000048  00000+0  00000+0 0  9993", "line2": "2 40294  56.8656  37.7327 0060838  68.9718 291.7470  2.00565491 81685"}}, "geometry": {"type": "Point", "coordinates": [-131.82706042448544, -15.642530803561433]}}]}